{"type": "FeatureCollection", "features": [ {"type": "Feature", "properties": {"norad_id": 45807, "name": "BEIDOU-3 G3 (C61)", "group": "gnss", "lat": -0.5989017543575065, "lon": -96.63882186460975, "alt_km": 35797.90246077661, "timestamp": "2025-12-25T03:55:56.600347+00:00", "meta": {"OBJECT_NAME": "BEIDOU-3 G3 (C61)", "OBJECT_ID": "2020-040A", "EPOCH": "2025-12-24T06:46:41.471616", "MEAN_MOTION": 1.00268173, "ECCENTRICITY": 0.00065833, "INCLINATION": 2.0173, "RA_OF_ASC_NODE": 66.6796, "ARG_OF_PERICENTER": 309.1585, "MEAN_ANOMALY": 289.4373, "EPHEMERIS_TYPE": 0, "CLASSIFICATION_TYPE": "U", "NORAD_CAT_ID": 45807, "ELEMENT_SET_NO": 999, "REV_AT_EPOCH": 2031, "BSTAR": 0, "MEAN_MOTION_DOT": -3.33e-06, "MEAN_MOTION_DDOT": 0}, "tle": {"line1": "1 45807U 20040A   25358.28242444 -.00000333  00000+0  00000+0 0  9991", "line2": "2 45807   2.0173  66.6796 0006583 309.1585 289.4373  1.00268173 20312"}}, "geometry": {"type": "Point", "coordinates": [-96.63882186460975, -0.5989017543575065]}}, {"type": "Feature", "properties": {"norad_id": 45854, "name": "GPS BIII-3  (PRN 23)", "group": "gnss", "lat": -35.605724841504404, "lon": 7.482468351951161, "alt_km": 20246.01085024554, "timestamp": "2025-12-25T03:55:56.600359+00:00", "meta": {"OBJECT_NAME": "GPS BIII-3  (PRN 23)", "OBJECT_ID": "2020-041A", "EPOCH": "2025-12-24T07:36:15.586848", "MEAN_MOTION": 2.00561688, "ECCENTRICITY": 0.00606528, "INCLINATION": 56.5546, "RA_OF_ASC_NODE": 35.7353, "ARG_OF_PERICENTER": 203.7393, "MEAN_ANOMALY": 219.8521, "EPHEMERIS_TYPE": 0, "CLASSIFICATION_TYPE": "U", "NORAD_CAT_ID": 45854, "ELEMENT_SET_NO": 999, "REV_AT_EPOCH": 4053, "BSTAR": 0, "MEAN_MOTION_DOT": -4.9e-07, "MEAN_MOTION_DDOT": 0}, "tle": {"line1": "1 45854U 20041A   25358.31684707 -.00000049  00000+0  00000+0 0  9994", "line2": "2 45854  56.5546  35.7353 0060652 203.7393 219.8521  2.00561688 40537"}}, "geometry": {"type": "Point", "coordinates": [7.482468351951161, -35.605724841504404]}}, {"type": "Feature", "properties": {"norad_id": 46114, "name": "GALAXY 30 (WAAS/PRN 135)", "group": "gnss", "lat": 0.020247846216292976, "lon": 27.926233215095095, "alt_km": 35790.125995334216, "timestamp": "2025-12-25T03:55:56.600371+00:00", "meta": {"OBJECT_NAME": "GALAXY 30 (WAAS/PRN 135)", "OBJECT_ID": "2020-056C", "EPOCH": "2025-12-24T14:13:04.643040", "MEAN_MOTION": 1.00271053, "ECCENTRICITY": 0.0002137, "INCLINATION": 0.0158, "RA_OF_ASC_NODE": 331.484, "ARG_OF_PERICENTER": 301.012, "MEAN_ANOMALY": 269.1362, "EPHEMERIS_TYPE": 0, "CLASSIFICATION_TYPE": "U", "NORAD_CAT_ID": 46114, "ELEMENT_SET_NO": 999, "REV_AT_EPOCH": 1954, "BSTAR": 0, "MEAN_MOTION_DOT": 5.8e-07, "MEAN_MOTION_DDOT": 0}, "tle": {"line1": "1 46114U 20056C   25358.59241485  .00000058  00000+0  00000+0 0  9991", "line2": "2 46114   0.0158 331.4840 0002137 301.0120 269.1362  1.00271053 19542"}}, "geometry": {"type": "Point", "coordinates": [27.926233215095095, 0.020247846216292976]}}, {"type": "Feature", "properties": {"norad_id": 46805, "name": "COSMOS 2547 (705K)", "group": "gnss", "lat": -53.13002370857547, "lon": 57.62456850252329, "alt_km": 19120.926785951913, "timestamp": "2025-12-25T03:55:56.600385+00:00", "meta": {"OBJECT_NAME": "COSMOS 2547 (705K)", "OBJECT_ID": "2020-075A", "EPOCH": "2025-12-22T23:18:06.838272", "MEAN_MOTION": 2.13100223, "ECCENTRICITY": 0.00061117, "INCLINATION": 64.5968, "RA_OF_ASC_NODE": 198.3547, "ARG_OF_PERICENTER": 227.5721, "MEAN_ANOMALY": 132.44, "EPHEMERIS_TYPE": 0, "CLASSIFICATION_TYPE": "U", "NORAD_CAT_ID": 46805, "ELEMENT_SET_NO": 999, "REV_AT_EPOCH": 4015, "BSTAR": 0, "MEAN_MOTION_DOT": 9.5e-07, "MEAN_MOTION_DDOT": 0}, "tle": {"line1": "1 46805U 20075A   25356.97091248  .00000095  00000+0  00000+0 0  9990", "line2": "2 46805  64.5968 198.3547 0006111 227.5721 132.4400  2.13100223 40153"}}, "geometry": {"type": "Point", "coordinates": [57.62456850252329, -53.13002370857547]}}, {"type": "Feature", "properties": {"norad_id": 46826, "name": "GPS BIII-4  (PRN 14)", "group": "gnss", "lat": -50.62045934891799, "lon": 155.56625921917112, "alt_km": 20166.85805660031, "timestamp": "2025-12-25T03:55:56.600397+00:00", "meta": {"OBJECT_NAME": "GPS BIII-4  (PRN 14)", "OBJECT_ID": "2020-078A", "EPOCH": "2025-12-16T01:06:13.902336", "MEAN_MOTION": 2.00566891, "ECCENTRICITY": 0.0064754, "INCLINATION": 54.0144, "RA_OF_ASC_NODE": 218.2068, "ARG_OF_PERICENTER": 203.3802, "MEAN_ANOMALY": 339.3962, "EPHEMERIS_TYPE": 0, "CLASSIFICATION_TYPE": "U", "NORAD_CAT_ID": 46826, "ELEMENT_SET_NO": 999, "REV_AT_EPOCH": 3783, "BSTAR": 0, "MEAN_MOTION_DOT": 6.7e-07, "MEAN_MOTION_DDOT": 0}, "tle": {"line1": "1 46826U 20078A   25350.04599424  .00000067  00000+0  00000+0 0  9996", "line2": "2 46826  54.0144 218.2068 0064754 203.3802 339.3962  2.00566891 37830"}}, "geometry": {"type": "Point", "coordinates": [155.56625921917112, -50.62045934891799]}}, {"type": "Feature", "properties": {"norad_id": 48859, "name": "GPS BIII-5  (PRN 11)", "group": "gnss", "lat": 50.11500883848321, "lon": 103.3068547448219, "alt_km": 20212.6861319231, "timestamp": "2025-12-25T03:55:56.600411+00:00", "meta": {"OBJECT_NAME": "GPS BIII-5  (PRN 11)", "OBJECT_ID": "2021-054A", "EPOCH": "2025-12-08T04:14:32.423424", "MEAN_MOTION": 2.00553627, "ECCENTRICITY": 0.0024678, "INCLINATION": 55.2581, "RA_OF_ASC_NODE": 340.1367, "ARG_OF_PERICENTER": 233.3993, "MEAN_ANOMALY": 212.8594, "EPHEMERIS_TYPE": 0, "CLASSIFICATION_TYPE": "U", "NORAD_CAT_ID": 48859, "ELEMENT_SET_NO": 999, "REV_AT_EPOCH": 3292, "BSTAR": 0, "MEAN_MOTION_DOT": -8.6e-07, "MEAN_MOTION_DDOT": 0}, "tle": {"line1": "1 48859U 21054A   25342.17676416 -.00000086  00000+0  00000+0 0  9993", "line2": "2 48859  55.2581 340.1367 0024678 233.3993 212.8594  2.00553627 32922"}}, "geometry": {"type": "Point", "coordinates": [103.3068547448219, 50.11500883848321]}}, {"type": "Feature", "properties": {"norad_id": 49336, "name": "QZS-1R (QZSS/PRN 196)", "group": "gnss", "lat": -9.873560661426792, "lon": -84.5232235340495, "alt_km": 34744.40091980935, "timestamp": "2025-12-25T03:55:56.600422+00:00", "meta": {"OBJECT_NAME": "QZS-1R (QZSS/PRN 196)", "OBJECT_ID": "2021-096A", "EPOCH": "2025-12-24T14:02:51.747360", "MEAN_MOTION": 1.00253394, "ECCENTRICITY": 0.0757125, "INCLINATION": 37.101, "RA_OF_ASC_NODE": 82.185, "ARG_OF_PERICENTER": 271.5387, "MEAN_ANOMALY": 84.3648, "EPHEMERIS_TYPE": 0, "CLASSIFICATION_TYPE": "U", "NORAD_CAT_ID": 49336, "ELEMENT_SET_NO": 999, "REV_AT_EPOCH": 1526, "BSTAR": 0, "MEAN_MOTION_DOT": -2.38e-06, "MEAN_MOTION_DDOT": 0}, "tle": {"line1": "1 49336U 21096A   25358.58532115 -.00000238  00000+0  00000+0 0  9998", "line2": "2 49336  37.1010  82.1850 0757125 271.5387  84.3648  1.00253394 15267"}}, "geometry": {"type": "Point", "coordinates": [-84.5232235340495, -9.873560661426792]}}, {"type": "Feature", "properties": {"norad_id": 49809, "name": "GSAT0223 (GALILEO 27)", "group": "gnss", "lat": -45.46545803301251, "lon": -152.7172897602702, "alt_km": 23214.804485214016, "timestamp": "2025-12-25T03:55:56.600434+00:00", "meta": {"OBJECT_NAME": "GSAT0223 (GALILEO 27)", "OBJECT_ID": "2021-116A", "EPOCH": "2025-12-22T17:26:14.878176", "MEAN_MOTION": 1.70475871, "ECCENTRICITY": 0.000441, "INCLINATION": 57.2174, "RA_OF_ASC_NODE": 346.4438, "ARG_OF_PERICENTER": 255.815, "MEAN_ANOMALY": 286.3499, "EPHEMERIS_TYPE": 0, "CLASSIFICATION_TYPE": "U", "NORAD_CAT_ID": 49809, "ELEMENT_SET_NO": 999, "REV_AT_EPOCH": 2517, "BSTAR": 0, "MEAN_MOTION_DOT": -6.4e-07, "MEAN_MOTION_DDOT": 0}, "tle": {"line1": "1 49809U 21116A   25356.72656109 -.00000064  00000+0  00000+0 0  9997", "line2": "2 49809  57.2174 346.4438 0004410 255.8150 286.3499  1.70475871 25171"}}, "geometry": {"type": "Point", "coordinates": [-152.7172897602702, -45.46545803301251]}}, {"type": "Feature", "properties": {"norad_id": 49810, "name": "GSAT0224 (GALILEO 28)", "group": "gnss", "lat": -7.880846797789479, "lon": -18.752159595878233, "alt_km": 23223.225334836643, "timestamp": "2025-12-25T03:55:56.600445+00:00", "meta": {"OBJECT_NAME": "GSAT0224 (GALILEO 28)", "OBJECT_ID": "2021-116B", "EPOCH": "2025-12-23T03:00:59.528736", "MEAN_MOTION": 1.70475912, "ECCENTRICITY": 0.00037519, "INCLINATION": 57.2181, "RA_OF_ASC_NODE": 346.4317, "ARG_OF_PERICENTER": 260.8078, "MEAN_ANOMALY": 278.9053, "EPHEMERIS_TYPE": 0, "CLASSIFICATION_TYPE": "U", "NORAD_CAT_ID": 49810, "ELEMENT_SET_NO": 999, "REV_AT_EPOCH": 2520, "BSTAR": 0, "MEAN_MOTION_DOT": -6.3e-07, "MEAN_MOTION_DDOT": 0}, "tle": {"line1": "1 49810U 21116B   25357.12568899 -.00000063  00000+0  00000+0 0  9991", "line2": "2 49810  57.2181 346.4317 0003751 260.8078 278.9053  1.70475912 25202"}}, "geometry": {"type": "Point", "coordinates": [-18.752159595878233, -7.880846797789479]}}, {"type": "Feature", "properties": {"norad_id": 52984, "name": "COSMOS 2557 (706K)", "group": "gnss", "lat": 54.53598245460134, "lon": 98.34251968865483, "alt_km": 19156.841019432224, "timestamp": "2025-12-25T03:55:56.600457+00:00", "meta": {"OBJECT_NAME": "COSMOS 2557 (706K)", "OBJECT_ID": "2022-075A", "EPOCH": "2025-12-24T01:47:30.472800", "MEAN_MOTION": 2.13102037, "ECCENTRICITY": 0.00135405, "INCLINATION": 64.4034, "RA_OF_ASC_NODE": 320.6533, "ARG_OF_PERICENTER": 278.4608, "MEAN_ANOMALY": 81.3862, "EPHEMERIS_TYPE": 0, "CLASSIFICATION_TYPE": "U", "NORAD_CAT_ID": 52984, "ELEMENT_SET_NO": 999, "REV_AT_EPOCH": 2698, "BSTAR": 0, "MEAN_MOTION_DOT": -3.6e-07, "MEAN_MOTION_DDOT": 0}, "tle": {"line1": "1 52984U 22075A   25358.07465825 -.00000036  00000+0  00000+0 0  9992", "line2": "2 52984  64.4034 320.6533 0013540 278.4608  81.3862  2.13102037 26983"}}, "geometry": {"type": "Point", "coordinates": [98.34251968865483, 54.53598245460134]}}]}